{"fetched_at":"2026-03-29T16:36:15Z","count":15609,"tles":[{"name":"ICEYE-X30","line1":"1 56947U 23084R   26087.69592404  .00146413  00000+0  88877-3 0  9999","line2":"2 56947  97.5701 240.6732 0005584 234.3855 125.6891 15.77076706156211","category":"Other"}]}