{
  "norad_id": 56947,
  "name": "ICEYE-X30",
  "history": [
    {
      "epoch": "2026-03-28T16:42:07.837056",
      "apogee_km": 342.47939379227773,
      "perigee_km": 334.9769240843498,
      "latitude_deg": -65.64878551042976,
      "longitude_deg": -58.49129216023721,
      "semi_major_axis_km": 6716.8651589383135,
      "eccentricity": 0.00055848,
      "inclination_deg": 97.5701,
      "raan_deg": 240.6732,
      "arg_perigee_deg": 234.3855,
      "mean_anomaly_deg": 125.6891,
      "mean_motion_rev_day": 15.77076706
    }
  ]
}